STARLINK-4609           
1 53619U 22104AH  22247.83334491 -.01178315  00000+0 -60220-2 0  9994
2 53619  53.2176 249.9804 0012079  54.2836  82.1800 15.82921695  1304
STARLINK-4615           
1 53620U 22104AJ  22247.83334491 -.01179241  00000+0 -60103-2 0  9995
2 53620  53.2176 249.9772 0011186  52.8883  85.4386 15.83005096  1308
STARLINK-4608           
1 53621U 22104AK  22247.83334491 -.01178724  00000+0 -60155-2 0  9998
2 53621  53.2176 249.9789 0012089  54.0370  83.2116 15.82952131  1302
STARLINK-4568           
1 53622U 22104AL  22247.83334491 -.01179530  00000+0 -59977-2 0  9995
2 53622  53.2176 249.9758 0011703  53.7530  85.2810 15.83040791  1309
STARLINK-4573           
1 53623U 22104AM  22247.83334491 -.01179134  00000+0 -60124-2 0  9992
2 53623  53.2176 249.9775 0011479  53.0115  84.9516 15.82987827  1309
STARLINK-4596           
1 53624U 22104AN  22247.83334491 -.01179677  00000+0 -59912-2 0  9998
2 53624  53.2176 249.9750 0012195  54.4859  84.9812 15.83052710  1303
STARLINK-4603           
1 53625U 22104AP  22247.83334491 -.01179399  00000+0 -60028-2 0  9990
2 53625  53.2176 249.9760 0011635  53.4955  85.1938 15.83022266  1304
STARLINK-4554           
1 53626U 22104AQ  22247.83334491 -.01180268  00000+0 -59883-2 0  9995
2 53626  53.2176 249.9728 0011108  52.9432  87.6163 15.83104195  1307
STARLINK-4595           
1 53627U 22104AR  22247.83334491 -.01179925  00000+0 -59952-2 0  9991
2 53627  53.2176 249.9738 0011160  52.9682  86.8377 15.83071954  1308
STARLINK-4600           
1 53628U 22104AS  22247.83334491 -.01180754  00000+0 -59805-2 0  9991
2 53628  53.2176 249.9714 0011117  52.2799  88.9726 15.83140811  1307
STARLINK-4602           
1 53629U 22104AT  22247.83334491 -.01180194  00000+0 -59912-2 0  9999
2 53629  53.2176 249.9731 0011284  52.6622  87.5231 15.83087925  1303
STARLINK-4598           
1 53630U 22104AU  22247.83334491 -.01180828  00000+0 -59790-2 0  9999
2 53630  53.2176 249.9707 0010858  52.4616  89.2024 15.83154320  1308
STARLINK-4599           
1 53631U 22104AV  22247.83334491 -.01180472  00000+0 -59866-2 0  9999
2 53631  53.2176 249.9717 0010839  52.4339  88.4905 15.83121226  1309
STARLINK-4606           
1 53632U 22104AW  22247.83334491 -.01181076  00000+0 -59613-2 0  9991
2 53632  53.2176 249.9693 0012053  54.3753  88.0021 15.83188857  1302
STARLINK-4593           
1 53633U 22104AX  22247.83334491 -.01181033  00000+0 -59712-2 0  9995
2 53633  53.2176 249.9695 0011455  53.1626  88.8834 15.83169816  1300
STARLINK-4592           
1 53634U 22104AY  22247.83334491 -.01181456  00000+0 -59529-2 0  9991
2 53634  53.2176 249.9678 0012200  54.4180  88.6995 15.83221674  1307
STARLINK-4587           
1 53635U 22104AZ  22247.83334491 -.01181219  00000+0 -59591-2 0  9998
2 53635  53.2176 249.9680 0011800  54.1841  88.5482 15.83206423  1302
STARLINK-4586           
1 53636U 22104BA  22247.83334491 -.01181793  00000+0 -59453-2 0  9993
2 53636  53.2176 249.9664 0012195  54.5525  89.2953 15.83255101  1304
STARLINK-4396           
1 53637U 22104BB  22247.83334491 -.01181736  00000+0 -59546-2 0  9994
2 53637  53.2176 249.9666 0011533  53.2550  90.2127 15.83239707  1305
STARLINK-4594           
1 53638U 22104BC  22247.83334491 -.01182286  00000+0 -59472-2 0  9994
2 53638  53.2176 249.9651 0010961  52.4779  92.0589 15.83291768  1305
STARLINK-4422           
1 53639U 22104BD  22247.83334491 -.01182157  00000+0 -59532-2 0  9999
2 53639  53.2176 249.9652 0010666  51.8402  92.3224 15.83275866  1305
STARLINK-4597           
1 53640U 22104BE  22247.83334491 -.01182231  00000+0 -59283-2 0  9997
2 53640  53.2176 249.9644 0012755  55.4989  89.4090 15.83307387  1301
STARLINK-4588           
1 53641U 22104BF  22247.83334491 -.01182608  00000+0 -59255-2 0  9995
2 53641  53.2176 249.9629 0012862  54.8674  90.4417 15.83321502  1308
FALCON 9 DEB            
1 53642U 22104BG  22247.40262768  .00676005  22444-3  85107-3 0  9998
2 53642  53.2192 251.8197 0068247  70.0988 290.7381 16.02195448  1175
FALCON 9 DEB            
1 53643U 22104BH  22247.71244242  .00703617  24733-3  86461-3 0  9997
2 53643  53.2174 250.1920 0063488  72.4317 288.3638 16.03158099  1222
FALCON 9 DEB            
1 53644U 22104BJ  22247.39577611  .00630876  20001-3  74405-3 0  9996
2 53644  53.2172 251.7650 0062336  66.7727 293.9854 16.03905587  1178
FALCON 9 DEB            
1 53645U 22104BK  22247.39496731  .00665579  22355-3  78003-3 0  9990
2 53645  53.2178 251.7587 0062018  68.1697 292.5919 16.04039124  1187
2022-106A               
1 53698U 22106A   22248.10438443  .00003570  00000+0  70761-3 0  9995
2 53698  98.1875 254.2061 0005626 238.0619 214.3285 14.62864478   318
2022-106B               
1 53699U 22106B   22248.06298193 -.00000988  00000+0 -74505-4 0  9990
2 53699  98.2025 254.2881 0145308  44.8097  40.6410 14.91456599   304
